ISS (ZARYA)             
1 25544U 98067A   25310.29236606  .00011954  00000+0  21866-3 0  9990
2 25544  51.6335 322.9076 0005123  22.8618 337.2598 15.49789706537202
CSS (TIANHE)            
1 48274U 21035A   25310.14417353  .00066877  00000+0  78556-3 0  9992
2 48274  41.4668 238.9361 0005882 331.1905  28.8608 15.60501928258311
ISS (NAUKA)             
1 49044U 21066A   25310.29236606  .00011954  00000+0  21866-3 0  9996
2 49044  51.6335 322.9076 0005123  22.8618 337.2598 15.49789706230449
FREGAT DEB              
1 49271U 11037PF  25310.29304846  .00007050  00000+0  15059-1 0  9994
2 49271  51.6296 307.1978 0885160 145.2764 220.9265 12.33830369197434
CSS (WENTIAN)           
1 53239U 22085A   25310.14417353  .00066877  00000+0  78556-3 0  9995
2 53239  41.4668 238.9361 0005882 331.1905  28.8608 15.60501928173842
CSS (MENGTIAN)          
1 54216U 22143A   25310.14417353  .00066877  00000+0  78556-3 0  9996
2 54216  41.4668 238.9361 0005882 331.1905  28.8608 15.60501928158649
SOYUZ-MS 27             
1 63520U 25072A   25310.29236606  .00011954  00000+0  21866-3 0  9992
2 63520  51.6335 322.9076 0005123  22.8618 337.2598 15.49789706 20205
SHENZHOU-20 (SZ-20)     
1 63632U 25082A   25310.14417353  .00066877  00000+0  78556-3 0  9993
2 63632  41.4668 238.9361 0005882 331.1905  28.8608 15.60501928255302
PROGRESS-MS 31          
1 64751U 25146A   25310.29236606  .00011954  00000+0  21866-3 0  9991
2 64751  51.6335 322.9076 0005123  22.8618 337.2598 15.49789706  6756
TIANZHOU-9              
1 64786U 25149A   25310.14417353  .00066877  00000+0  78556-3 0  9998
2 64786  41.4668 238.9361 0005882 331.1905  28.8608 15.60501928255303
CREW DRAGON 11          
1 65077U 25166A   25310.29236606  .00011954  00000+0  21866-3 0  9995
2 65077  51.6335 322.9076 0005123  22.8618 337.2598 15.49789706  2147
DRAGON CRS-33           
1 65304U 25186A   25310.29236606  .00011954  00000+0  21866-3 0  9990
2 65304  51.6335 322.9076 0005123  22.8618 337.2598 15.49789706   115
