CCSDS_OMM_VERS = 2.0
CREATION_DATE  = 
ORIGINATOR     = 

OBJECT_NAME    = ISS (ZARYA)
OBJECT_ID      = 1998-067A
CENTER_NAME    = EARTH
REF_FRAME      = TEME
TIME_SYSTEM    = UTC
MEAN_ELEMENT_THEORY = SGP/SGP4

EPOCH          = 2025-11-06T07:01:00.427584
MEAN_MOTION    = 15.49789706
ECCENTRICITY   = .00051238
INCLINATION    = 51.6335
RA_OF_ASC_NODE = 322.9076
ARG_OF_PERICENTER = 22.8618
MEAN_ANOMALY   = 337.2598

EPHEMERIS_TYPE = 0
CLASSIFICATION_TYPE = U
NORAD_CAT_ID   = 25544
ELEMENT_SET_NO = 999
REV_AT_EPOCH   = 53720
BSTAR          = .21866297E-3
MEAN_MOTION_DOT = .11954E-3
MEAN_MOTION_DDOT = 0

CCSDS_OMM_VERS = 2.0
CREATION_DATE  = 
ORIGINATOR     = 

OBJECT_NAME    = CSS (TIANHE)
OBJECT_ID      = 2021-035A
CENTER_NAME    = EARTH
REF_FRAME      = TEME
TIME_SYSTEM    = UTC
MEAN_ELEMENT_THEORY = SGP/SGP4

EPOCH          = 2025-11-06T03:27:36.592992
MEAN_MOTION    = 15.60501928
ECCENTRICITY   = .00058828
INCLINATION    = 41.4668
RA_OF_ASC_NODE = 238.9361
ARG_OF_PERICENTER = 331.1905
MEAN_ANOMALY   = 28.8608

EPHEMERIS_TYPE = 0
CLASSIFICATION_TYPE = U
NORAD_CAT_ID   = 48274
ELEMENT_SET_NO = 999
REV_AT_EPOCH   = 25831
BSTAR          = .78556468E-3
MEAN_MOTION_DOT = .66877E-3
MEAN_MOTION_DDOT = 0

CCSDS_OMM_VERS = 2.0
CREATION_DATE  = 
ORIGINATOR     = 

OBJECT_NAME    = ISS (NAUKA)
OBJECT_ID      = 2021-066A
CENTER_NAME    = EARTH
REF_FRAME      = TEME
TIME_SYSTEM    = UTC
MEAN_ELEMENT_THEORY = SGP/SGP4

EPOCH          = 2025-11-06T07:01:00.427584
MEAN_MOTION    = 15.49789706
ECCENTRICITY   = .00051238
INCLINATION    = 51.6335
RA_OF_ASC_NODE = 322.9076
ARG_OF_PERICENTER = 22.8618
MEAN_ANOMALY   = 337.2598

EPHEMERIS_TYPE = 0
CLASSIFICATION_TYPE = U
NORAD_CAT_ID   = 49044
ELEMENT_SET_NO = 999
REV_AT_EPOCH   = 23044
BSTAR          = .21866297E-3
MEAN_MOTION_DOT = .11954E-3
MEAN_MOTION_DDOT = 0

CCSDS_OMM_VERS = 2.0
CREATION_DATE  = 
ORIGINATOR     = 

OBJECT_NAME    = FREGAT DEB
OBJECT_ID      = 2011-037PF
CENTER_NAME    = EARTH
REF_FRAME      = TEME
TIME_SYSTEM    = UTC
MEAN_ELEMENT_THEORY = SGP/SGP4

EPOCH          = 2025-11-06T07:01:59.386944
MEAN_MOTION    = 12.33830369
ECCENTRICITY   = .08851607
INCLINATION    = 51.6296
RA_OF_ASC_NODE = 307.1978
ARG_OF_PERICENTER = 145.2764
MEAN_ANOMALY   = 220.9265

EPHEMERIS_TYPE = 0
CLASSIFICATION_TYPE = U
NORAD_CAT_ID   = 49271
ELEMENT_SET_NO = 999
REV_AT_EPOCH   = 19743
BSTAR          = .15059214E-1
MEAN_MOTION_DOT = .705E-4
MEAN_MOTION_DDOT = 0

CCSDS_OMM_VERS = 2.0
CREATION_DATE  = 
ORIGINATOR     = 

OBJECT_NAME    = CSS (WENTIAN)
OBJECT_ID      = 2022-085A
CENTER_NAME    = EARTH
REF_FRAME      = TEME
TIME_SYSTEM    = UTC
MEAN_ELEMENT_THEORY = SGP/SGP4

EPOCH          = 2025-11-06T03:27:36.592992
MEAN_MOTION    = 15.60501928
ECCENTRICITY   = .00058828
INCLINATION    = 41.4668
RA_OF_ASC_NODE = 238.9361
ARG_OF_PERICENTER = 331.1905
MEAN_ANOMALY   = 28.8608

EPHEMERIS_TYPE = 0
CLASSIFICATION_TYPE = U
NORAD_CAT_ID   = 53239
ELEMENT_SET_NO = 999
REV_AT_EPOCH   = 17384
BSTAR          = .78556468E-3
MEAN_MOTION_DOT = .66877E-3
MEAN_MOTION_DDOT = 0

CCSDS_OMM_VERS = 2.0
CREATION_DATE  = 
ORIGINATOR     = 

OBJECT_NAME    = CSS (MENGTIAN)
OBJECT_ID      = 2022-143A
CENTER_NAME    = EARTH
REF_FRAME      = TEME
TIME_SYSTEM    = UTC
MEAN_ELEMENT_THEORY = SGP/SGP4

EPOCH          = 2025-11-06T03:27:36.592992
MEAN_MOTION    = 15.60501928
ECCENTRICITY   = .00058828
INCLINATION    = 41.4668
RA_OF_ASC_NODE = 238.9361
ARG_OF_PERICENTER = 331.1905
MEAN_ANOMALY   = 28.8608

EPHEMERIS_TYPE = 0
CLASSIFICATION_TYPE = U
NORAD_CAT_ID   = 54216
ELEMENT_SET_NO = 999
REV_AT_EPOCH   = 15864
BSTAR          = .78556468E-3
MEAN_MOTION_DOT = .66877E-3
MEAN_MOTION_DDOT = 0

CCSDS_OMM_VERS = 2.0
CREATION_DATE  = 
ORIGINATOR     = 

OBJECT_NAME    = SOYUZ-MS 27
OBJECT_ID      = 2025-072A
CENTER_NAME    = EARTH
REF_FRAME      = TEME
TIME_SYSTEM    = UTC
MEAN_ELEMENT_THEORY = SGP/SGP4

EPOCH          = 2025-11-06T07:01:00.427584
MEAN_MOTION    = 15.49789706
ECCENTRICITY   = .00051238
INCLINATION    = 51.6335
RA_OF_ASC_NODE = 322.9076
ARG_OF_PERICENTER = 22.8618
MEAN_ANOMALY   = 337.2598

EPHEMERIS_TYPE = 0
CLASSIFICATION_TYPE = U
NORAD_CAT_ID   = 63520
ELEMENT_SET_NO = 999
REV_AT_EPOCH   = 2020
BSTAR          = .21866297E-3
MEAN_MOTION_DOT = .11954E-3
MEAN_MOTION_DDOT = 0

CCSDS_OMM_VERS = 2.0
CREATION_DATE  = 
ORIGINATOR     = 

OBJECT_NAME    = SHENZHOU-20 (SZ-20)
OBJECT_ID      = 2025-082A
CENTER_NAME    = EARTH
REF_FRAME      = TEME
TIME_SYSTEM    = UTC
MEAN_ELEMENT_THEORY = SGP/SGP4

EPOCH          = 2025-11-06T03:27:36.592992
MEAN_MOTION    = 15.60501928
ECCENTRICITY   = .00058828
INCLINATION    = 41.4668
RA_OF_ASC_NODE = 238.9361
ARG_OF_PERICENTER = 331.1905
MEAN_ANOMALY   = 28.8608

EPHEMERIS_TYPE = 0
CLASSIFICATION_TYPE = U
NORAD_CAT_ID   = 63632
ELEMENT_SET_NO = 999
REV_AT_EPOCH   = 25530
BSTAR          = .78556468E-3
MEAN_MOTION_DOT = .66877E-3
MEAN_MOTION_DDOT = 0

CCSDS_OMM_VERS = 2.0
CREATION_DATE  = 
ORIGINATOR     = 

OBJECT_NAME    = PROGRESS-MS 31
OBJECT_ID      = 2025-146A
CENTER_NAME    = EARTH
REF_FRAME      = TEME
TIME_SYSTEM    = UTC
MEAN_ELEMENT_THEORY = SGP/SGP4

EPOCH          = 2025-11-06T07:01:00.427584
MEAN_MOTION    = 15.49789706
ECCENTRICITY   = .00051238
INCLINATION    = 51.6335
RA_OF_ASC_NODE = 322.9076
ARG_OF_PERICENTER = 22.8618
MEAN_ANOMALY   = 337.2598

EPHEMERIS_TYPE = 0
CLASSIFICATION_TYPE = U
NORAD_CAT_ID   = 64751
ELEMENT_SET_NO = 999
REV_AT_EPOCH   = 675
BSTAR          = .21866297E-3
MEAN_MOTION_DOT = .11954E-3
MEAN_MOTION_DDOT = 0

CCSDS_OMM_VERS = 2.0
CREATION_DATE  = 
ORIGINATOR     = 

OBJECT_NAME    = TIANZHOU-9
OBJECT_ID      = 2025-149A
CENTER_NAME    = EARTH
REF_FRAME      = TEME
TIME_SYSTEM    = UTC
MEAN_ELEMENT_THEORY = SGP/SGP4

EPOCH          = 2025-11-06T03:27:36.592992
MEAN_MOTION    = 15.60501928
ECCENTRICITY   = .00058828
INCLINATION    = 41.4668
RA_OF_ASC_NODE = 238.9361
ARG_OF_PERICENTER = 331.1905
MEAN_ANOMALY   = 28.8608

EPHEMERIS_TYPE = 0
CLASSIFICATION_TYPE = U
NORAD_CAT_ID   = 64786
ELEMENT_SET_NO = 999
REV_AT_EPOCH   = 25530
BSTAR          = .78556468E-3
MEAN_MOTION_DOT = .66877E-3
MEAN_MOTION_DDOT = 0

CCSDS_OMM_VERS = 2.0
CREATION_DATE  = 
ORIGINATOR     = 

OBJECT_NAME    = CREW DRAGON 11
OBJECT_ID      = 2025-166A
CENTER_NAME    = EARTH
REF_FRAME      = TEME
TIME_SYSTEM    = UTC
MEAN_ELEMENT_THEORY = SGP/SGP4

EPOCH          = 2025-11-06T07:01:00.427584
MEAN_MOTION    = 15.49789706
ECCENTRICITY   = .00051238
INCLINATION    = 51.6335
RA_OF_ASC_NODE = 322.9076
ARG_OF_PERICENTER = 22.8618
MEAN_ANOMALY   = 337.2598

EPHEMERIS_TYPE = 0
CLASSIFICATION_TYPE = U
NORAD_CAT_ID   = 65077
ELEMENT_SET_NO = 999
REV_AT_EPOCH   = 214
BSTAR          = .21866297E-3
MEAN_MOTION_DOT = .11954E-3
MEAN_MOTION_DDOT = 0

CCSDS_OMM_VERS = 2.0
CREATION_DATE  = 
ORIGINATOR     = 

OBJECT_NAME    = DRAGON CRS-33
OBJECT_ID      = 2025-186A
CENTER_NAME    = EARTH
REF_FRAME      = TEME
TIME_SYSTEM    = UTC
MEAN_ELEMENT_THEORY = SGP/SGP4

EPOCH          = 2025-11-06T07:01:00.427584
MEAN_MOTION    = 15.49789706
ECCENTRICITY   = .00051238
INCLINATION    = 51.6335
RA_OF_ASC_NODE = 322.9076
ARG_OF_PERICENTER = 22.8618
MEAN_ANOMALY   = 337.2598

EPHEMERIS_TYPE = 0
CLASSIFICATION_TYPE = U
NORAD_CAT_ID   = 65304
ELEMENT_SET_NO = 999
REV_AT_EPOCH   = 11
BSTAR          = .21866297E-3
MEAN_MOTION_DOT = .11954E-3
MEAN_MOTION_DDOT = 0

